NORAD_CAT_ID,OBJECT_NAME,OBJECT_TYPE,EPOCH,MEAN_MOTION,ECCENTRICITY,INCLINATION,RA_OF_ASC_NODE,ARG_OF_PERICENTER,MEAN_ANOMALY,BSTAR,MEAN_MOTION_DOT,MEAN_MOTION_DDOT,TLE_LINE0,TLE_LINE1,TLE_LINE2,SEMIMAJOR_AXIS,PERIOD,APOGEE,PERIGEE,DECAYED
53559.0,STARLINK-4508,PAYLOAD,2022-10-03 06:00:00,15.53213444,0.0001215,53.2175,295.4175,66.7099,55.95399999999999,-0.018695,-0.01083814,0.0,0 STARLINK-4508,1 53559U 22101AJ  22276.25001157 -.01083814  00000-0 -18695-1 0  9990,2 53559  53.2175 295.4175 0001215  66.7099  55.9540 15.53213444  7019,6785.488,92.711,408.177,406.528,0.0
53559.0,STARLINK-4508,PAYLOAD,2022-10-03 14:00:01,15.52524761,0.000136,53.2168,293.8217,52.8011,134.2502,-0.020944,-0.0119199,0.0,0 STARLINK-4508,1 53559U 22101AJ  22276.58334491 -.01191990  00000-0 -20944-1 0  9991,2 53559  53.2168 293.8217 0001360  52.8011 134.2502 15.52524761  1302,6787.494000000002,92.752,410.283,408.436,0.0
53559.0,STARLINK-4508,PAYLOAD,2022-10-03 22:00:00,15.5167531,0.000124,53.2173,292.2258,63.76600000000001,186.8449,-0.019231,-0.01056978,0.0,0 STARLINK-4508,1 53559U 22101AJ  22276.91667824 -.01056978  00000-0 -19231-1 0  9990,2 53559  53.2173 292.2258 0001240  63.7660 186.8449 15.51675310  1303,6789.971,92.803,412.67800000000005,410.994,0.0
53559.0,STARLINK-4508,PAYLOAD,2022-10-04 14:00:01,15.50155083,0.0001235,53.2168,289.0389,47.4092,327.4762,-0.0070779,-0.00386646,0.0,0 STARLINK-4508,1 53559U 22101AJ  22277.58334491 -.00386646  00000-0 -70779-2 0  9997,2 53559  53.2168 289.0389 0001235  47.4092 327.4762 15.50155083  1308,6794.41,92.894,417.114,415.436,0.0
53559.0,STARLINK-4508,PAYLOAD,2022-10-04 22:00:00,15.49884792,0.0001190999999999,53.2174,287.4452,81.2156,354.7316,7.2212e-06,-4.1e-07,0.0,0 STARLINK-4508,1 53559U 22101AJ  22277.91667824 -.00000041  00000-0  72212-5 0  9991,2 53559  53.2174 287.4452 0001191  81.2156 354.7316 15.49884792  1308,6795.2,92.91,417.874,416.255,0.0
53559.0,STARLINK-4508,PAYLOAD,2022-10-05 14:00:01,15.4988166,0.0001424,53.2152,284.2511,52.9477,144.9707,-0.00039118,-0.00022586,0.0,0 STARLINK-4508,1 53559U 22101AJ  22278.58335648 -.00022586  00000-0 -39118-3 0  9996,2 53559  53.2152 284.2511 0001424  52.9477 144.9707 15.49881660  7372,6795.209,92.91,418.042,416.106,0.0
53559.0,STARLINK-4508,PAYLOAD,2022-10-05 22:00:00,15.49861782,0.000132,53.2151,282.6563,62.2443,196.5122,0.00052502,0.00029434,0.0,0 STARLINK-4508,1 53559U 22101AJ  22278.91667824  .00029434  00000-0  52502-3 0  9996,2 53559  53.2151 282.6563 0001320  62.2443 196.5122 15.49861782  1306,6795.267,92.912,418.029,416.235,0.0
53559.0,STARLINK-4508,PAYLOAD,2022-10-06 14:00:01,15.4985852,0.0001663,53.2153,279.4719,59.2019,321.3309,0.00017061,9.234e-05,0.0,0 STARLINK-4508,1 53559U 22101AJ  22279.58334491  .00009234  00000-0  17061-3 0  9998,2 53559  53.2153 279.4719 0001663  59.2019 321.3309 15.49858520  1301,6795.276999999999,92.912,418.272,416.012,0.0
53559.0,STARLINK-4508,PAYLOAD,2022-10-06 22:42:55,15.49855545,0.0001545,53.2161,277.7363,70.8604,176.8761,0.0010895999999999,0.00061815,0.0,0 STARLINK-4508,1 53559U 22101AJ  22279.94646991  .00061815  00000-0  10896-2 0  9990,2 53559  53.2161 277.7363 0001545  70.8604 176.8761 15.49855545  7589,6795.285,92.912,418.2,416.1,0.0
53559.0,STARLINK-4508,PAYLOAD,2022-10-07 14:00:01,15.49929308,0.0001602,53.2158,274.6926,62.698,140.5595,-9.1873e-05,-5.671e-05,0.0,0 STARLINK-4508,1 53559U 22101AJ  22280.58334491 -.00005671  00000-0 -91873-4 0  9997,2 53559  53.2158 274.6926 0001602  62.6980 140.5595 15.49929308  7689,6795.07,92.907,418.023,415.846,0.0
53559.0,STARLINK-4508,PAYLOAD,2022-10-07 22:00:00,15.49925385,0.0001408,53.2161,273.0976,69.9945,194.2311,-0.00067474,-0.00038613,0.0,0 STARLINK-4508,1 53559U 22101AJ  22280.91667824 -.00038613  00000-0 -67474-3 0  9994,2 53559  53.2161 273.0976 0001408  69.9945 194.2311 15.49925385  1302,6795.081,92.908,417.903,415.989,0.0
53559.0,STARLINK-4508,PAYLOAD,2022-10-08 06:00:00,15.49855125,0.0001724,53.2173,271.5149,56.5724,268.5322,0.00088384,0.00049979,0.0,0 STARLINK-4508,1 53559U 22101AJ  22281.25001157  .00049979  00000-0  88384-3 0  9991,2 53559  53.2173 271.5149 0001724  56.5724 268.5322 15.49855125  7787,6795.2869999999975,92.912,418.323,415.98,0.0
53559.0,STARLINK-4508,PAYLOAD,2022-10-08 14:00:01,15.49891122,0.0001609,53.2164,269.913,60.4971,325.5038,-2.544e-05,-1.896e-05,0.0,0 STARLINK-4508,1 53559U 22101AJ  22281.58334491 -.00001896  00000-0 -25440-4 0  9990,2 53559  53.2164 269.9130 0001609  60.4971 325.5038 15.49891122  1305,6795.181,92.91,418.14,415.953,0.0
53559.0,STARLINK-4508,PAYLOAD,2022-10-08 22:00:00,15.49885447,0.0001582,53.2167,268.3181,69.5159,17.4094,0.0011214999999999,0.00063721,0.0,0 STARLINK-4508,1 53559U 22101AJ  22281.91667824  .00063721  00000-0  11215-2 0  9992,2 53559  53.2167 268.3181 0001582  69.5159  17.4094 15.49885447  7897,6795.198,92.91,418.138,415.98800000000006,0.0
53559.0,STARLINK-4508,PAYLOAD,2022-10-09 14:00:01,15.50081641,0.0001504,53.2168,265.1391,60.8806,147.9156,-0.009461,-0.00507568,0.0,0 STARLINK-4508,1 53559U 22101AJ  22282.58334491 -.00507568  00000-0 -94610-2 0  9991,2 53559  53.2168 265.1391 0001504  60.8806 147.9156 15.50081641  1307,6794.624,92.898,417.511,415.468,0.0
53559.0,STARLINK-4508,PAYLOAD,2022-10-09 22:00:00,15.49741732,0.0001205,53.2172,263.55,64.1264,205.6077,-0.011592,-0.00606636,0.0,0 STARLINK-4508,1 53559U 22101AJ  22282.91667824 -.00606636  00000-0 -11592-1 0  9990,2 53559  53.2172 263.5500 0001205  64.1264 205.6077 15.49741732  1305,6795.618,92.919,418.302,416.664,0.0
53559.0,STARLINK-4508,PAYLOAD,2022-10-10 06:00:00,15.49312241,0.0001283,53.2175,261.9641,55.7293,274.4986,-0.021012,-0.01060836,0.0,0 STARLINK-4508,1 53559U 22101AJ  22283.25001157 -.01060836  00000-0 -21012-1 0  9994,2 53559  53.2175 261.9641 0001283  55.7293 274.4986 15.49312241  8095,6796.874,92.944,419.611,417.867,0.0
53559.0,STARLINK-4508,PAYLOAD,2022-10-10 14:00:01,15.48551963,0.0001273,53.2173,260.3756,50.6384,339.3479,-0.021554,-0.01059453,0.0,0 STARLINK-4508,1 53559U 22101AJ  22283.58334491 -.01059453  00000-0 -21554-1 0  9994,2 53559  53.2173 260.3756 0001273  50.6384 339.3479 15.48551963  1307,6799.098000000001,92.99,421.829,420.098,0.0
53559.0,STARLINK-4508,PAYLOAD,2022-10-10 22:00:01,15.477910199999998,0.0001409999999999,53.2175,258.7884,50.7138,38.1828,-0.022071,-0.01056534,0.0,0 STARLINK-4508,1 53559U 22101AJ  22283.91668981 -.01056534  00000-0 -22071-1 0  9997,2 53559  53.2175 258.7884 0001410  50.7138  38.1828 15.47791020  1304,6801.3269999999975,93.036,424.151,422.233,0.0
53559.0,STARLINK-4508,PAYLOAD,2022-10-11 06:00:00,15.47032787,0.0001508,53.2174,257.2065,54.6144,92.1482,-0.022709,-0.01058446,0.0,0 STARLINK-4508,1 53559U 22101AJ  22284.25001157 -.01058446  00000-0 -22709-1 0  9993,2 53559  53.2174 257.2065 0001508  54.6144  92.1482 15.47032787  8251,6803.549,93.081,426.44,424.388,0.0
53559.0,STARLINK-4508,PAYLOAD,2022-10-11 14:00:01,15.46273937,0.0001421,53.2174,255.6233,59.0398,144.7429,-0.023349,-0.01059751,0.0,0 STARLINK-4508,1 53559U 22101AJ  22284.58334491 -.01059751  00000-0 -23349-1 0  9990,2 53559  53.2174 255.6233 0001421  59.0398 144.7429 15.46273937  1301,6805.774,93.127,428.607,426.672,0.0
53559.0,STARLINK-4508,PAYLOAD,2022-10-11 22:00:00,15.45520341,0.0001236,53.2172,254.0403,64.3066,195.5806,-0.024118,-0.01065796,0.0,0 STARLINK-4508,1 53559U 22101AJ  22284.91667824 -.01065796  00000-0 -24118-1 0  9997,2 53559  53.2172 254.0403 0001236  64.3066 195.5806 15.45520341  1302,6807.986999999999,93.173,430.693,429.01,0.0
53559.0,STARLINK-4508,PAYLOAD,2022-10-12 06:00:00,15.44754472,0.0001242,53.2174,252.4652,65.4121,249.6708,-0.0245729999999999,-0.0105839,0.0,0 STARLINK-4508,1 53559U 22101AJ  22285.25001157 -.01058390  00000-0 -24573-1 0  9993,2 53559  53.2174 252.4652 0001242  65.4121 249.6708 15.44754472  8406,6810.236999999999,93.219,432.947,431.256,0.0
53559.0,STARLINK-4508,PAYLOAD,2022-10-12 14:00:01,15.43994904,0.0001161999999999,53.2175,250.8872,60.7639,308.6014,-0.025221,-0.01058382,0.0,0 STARLINK-4508,1 53559U 22101AJ  22285.58334491 -.01058382  00000-0 -25221-1 0  9991,2 53559  53.2175 250.8872 0001162  60.7639 308.6014 15.43994904  1309,6812.47,93.265,435.127,433.543,0.0
53559.0,STARLINK-4508,PAYLOAD,2022-10-12 22:00:00,15.43233248,0.0001247,53.2175,249.3113,62.8352,359.9,-0.025767,-0.01054058,0.0,0 STARLINK-4508,1 53559U 22101AJ  22285.91667824 -.01054058  00000-0 -25767-1 0  9998,2 53559  53.2175 249.3113 0001247  62.8352 359.9000 15.43233248  1300,6814.7109999999975,93.311,437.426,435.726,0.0
53559.0,STARLINK-4508,PAYLOAD,2022-10-13 06:00:00,15.4247571,0.0001351,53.2176,247.7401,65.0788,50.1107,-0.026527,-0.0107217999999999,0.0,0 STARLINK-4508,1 53559U 22101AJ  22286.25001157 -.01072180  00000-0 -26527-1 0  9998,2 53559  53.2176 247.7401 0001351  65.0788  50.1107 15.42475710  8561,6816.941999999999,93.356,439.728,437.886,0.0
53559.0,STARLINK-4508,PAYLOAD,2022-10-13 14:00:01,15.41716274,0.0001337,53.2176,246.1674,70.1134,96.6205,-0.027219,-0.01072351,0.0,0 STARLINK-4508,1 53559U 22101AJ  22286.58334491 -.01072351  00000-0 -27219-1 0  9993,2 53559  53.2176 246.1674 0001337  70.1134  96.6205 15.41716274  1303,6819.181,93.402,441.957,440.134,0.0
53559.0,STARLINK-4508,PAYLOAD,2022-10-13 22:00:00,15.40955511,0.0001378,53.2177,244.5974,71.1465,146.2185,-0.02783,-0.01069121,0.0,0 STARLINK-4508,1 53559U 22101AJ  22286.91667824 -.01069121  00000-0 -27830-1 0  9999,2 53559  53.2177 244.5974 0001378  71.1465 146.2185 15.40955511  1309,6821.425,93.449,444.23,442.35,0.0
53559.0,STARLINK-4508,PAYLOAD,2022-10-14 06:00:00,15.401958,0.000129,53.2177,243.0314,79.7477,187.3347,-0.0285449999999999,-0.01069148,0.0,0 STARLINK-4508,1 53559U 22101AJ  22287.25001157 -.01069148  00000-0 -28545-1 0  9991,2 53559  53.2177 243.0314 0001290  79.7477 187.3347 15.40195800  8716,6823.668000000002,93.495,446.413,444.653,0.0
